[{"OBJECT_NAME":"NORSAT 3","OBJECT_ID":"2021-034E","EPOCH":"2026-03-09T22:23:32.431200","MEAN_MOTION":15.04338407,"ECCENTRICITY":0.0005858,"INCLINATION":97.5427,"RA_OF_ASC_NODE":128.5959,"ARG_OF_PERICENTER":280.8366,"MEAN_ANOMALY":79.2201,"EPHEMERIS_TYPE":0,"CLASSIFICATION_TYPE":"U","NORAD_CAT_ID":48272,"ELEMENT_SET_NO":999,"REV_AT_EPOCH":26491,"BSTAR":0.00030361478,"MEAN_MOTION_DOT":4.174e-5,"MEAN_MOTION_DDOT":0},{"OBJECT_NAME":"STARLINK-34940","OBJECT_ID":"2025-191U","EPOCH":"2026-03-09T15:29:16.817856","MEAN_MOTION":15.05659637,"ECCENTRICITY":0.0001938,"INCLINATION":97.6,"RA_OF_ASC_NODE":301.493,"ARG_OF_PERICENTER":95.4795,"MEAN_ANOMALY":264.6653,"EPHEMERIS_TYPE":0,"CLASSIFICATION_TYPE":"U","NORAD_CAT_ID":65397,"ELEMENT_SET_NO":999,"REV_AT_EPOCH":3026,"BSTAR":-0.00019231,"MEAN_MOTION_DOT":-2.835e-5,"MEAN_MOTION_DDOT":0}]
